[{"OBJECT_NAME":"QIANFAN-35","OBJECT_ID":"2024-185S","EPOCH":"2026-03-07T06:32:30.866208","MEAN_MOTION":14.28123045,"ECCENTRICITY":0.00072872,"INCLINATION":88.9747,"RA_OF_ASC_NODE":66.9364,"ARG_OF_PERICENTER":27.5037,"MEAN_ANOMALY":332.6542,"EPHEMERIS_TYPE":0,"CLASSIFICATION_TYPE":"U","NORAD_CAT_ID":61568,"ELEMENT_SET_NO":999,"REV_AT_EPOCH":8224,"BSTAR":0.00048483714,"MEAN_MOTION_DOT":1.22e-5,"MEAN_MOTION_DDOT":0},{"OBJECT_NAME":"QIANFAN-36","OBJECT_ID":"2024-185T","EPOCH":"2026-03-07T06:09:14.470272","MEAN_MOTION":13.55614071,"ECCENTRICITY":0.00071235,"INCLINATION":88.9719,"RA_OF_ASC_NODE":72.2232,"ARG_OF_PERICENTER":142.2227,"MEAN_ANOMALY":217.9428,"EPHEMERIS_TYPE":0,"CLASSIFICATION_TYPE":"U","NORAD_CAT_ID":61569,"ELEMENT_SET_NO":999,"REV_AT_EPOCH":7937,"BSTAR":0.00014690823,"MEAN_MOTION_DOT":1.14e-6,"MEAN_MOTION_DDOT":0},{"OBJECT_NAME":"QIANFAN-37","OBJECT_ID":"2024-232B","EPOCH":"2026-03-07T06:39:11.485728","MEAN_MOTION":13.51005619,"ECCENTRICITY":0.00017566,"INCLINATION":89.0056,"RA_OF_ASC_NODE":32.791,"ARG_OF_PERICENTER":97.7138,"MEAN_ANOMALY":262.4213,"EPHEMERIS_TYPE":0,"CLASSIFICATION_TYPE":"U","NORAD_CAT_ID":62238,"ELEMENT_SET_NO":999,"REV_AT_EPOCH":11058,"BSTAR":0.00013864547,"MEAN_MOTION_DOT":1.02e-6,"MEAN_MOTION_DDOT":0},{"OBJECT_NAME":"QIANFAN-38","OBJECT_ID":"2024-232C","EPOCH":"2026-03-07T07:14:40.100064","MEAN_MOTION":13.51004159,"ECCENTRICITY":0.0013274,"INCLINATION":89.0062,"RA_OF_ASC_NODE":32.7101,"ARG_OF_PERICENTER":318.1212,"MEAN_ANOMALY":41.8923,"EPHEMERIS_TYPE":0,"CLASSIFICATION_TYPE":"U","NORAD_CAT_ID":62239,"ELEMENT_SET_NO":999,"REV_AT_EPOCH":11064,"BSTAR":0.00013844673,"MEAN_MOTION_DOT":1.01e-6,"MEAN_MOTION_DDOT":0},{"OBJECT_NAME":"QIANFAN-39","OBJECT_ID":"2024-232D","EPOCH":"2026-03-07T07:05:04.672608","MEAN_MOTION":14.25438386,"ECCENTRICITY":0.00167844,"INCLINATION":89.0061,"RA_OF_ASC_NODE":27.6369,"ARG_OF_PERICENTER":153.7461,"MEAN_ANOMALY":206.4587,"EPHEMERIS_TYPE":0,"CLASSIFICATION_TYPE":"U","NORAD_CAT_ID":62240,"ELEMENT_SET_NO":999,"REV_AT_EPOCH":11343,"BSTAR":0.00023974939,"MEAN_MOTION_DOT":5.81e-6,"MEAN_MOTION_DDOT":0},{"OBJECT_NAME":"QIANFAN-40","OBJECT_ID":"2024-232E","EPOCH":"2026-03-07T06:15:25.018272","MEAN_MOTION":13.51003434,"ECCENTRICITY":0.00125814,"INCLINATION":89.0091,"RA_OF_ASC_NODE":32.3224,"ARG_OF_PERICENTER":327.4496,"MEAN_ANOMALY":32.5879,"EPHEMERIS_TYPE":0,"CLASSIFICATION_TYPE":"U","NORAD_CAT_ID":62241,"ELEMENT_SET_NO":999,"REV_AT_EPOCH":11100,"BSTAR":0.00016034613,"MEAN_MOTION_DOT":1.15e-6,"MEAN_MOTION_DDOT":0},{"OBJECT_NAME":"QIANFAN-41","OBJECT_ID":"2024-232F","EPOCH":"2026-03-07T06:27:19.512576","MEAN_MOTION":13.51005071,"ECCENTRICITY":0.00125839,"INCLINATION":89.0061,"RA_OF_ASC_NODE":32.6635,"ARG_OF_PERICENTER":314.2355,"MEAN_ANOMALY":45.7762,"EPHEMERIS_TYPE":0,"CLASSIFICATION_TYPE":"U","NORAD_CAT_ID":62242,"ELEMENT_SET_NO":999,"REV_AT_EPOCH":11066,"BSTAR":0.00014290155,"MEAN_MOTION_DOT":1.04e-6,"MEAN_MOTION_DDOT":0},{"OBJECT_NAME":"QIANFAN-42","OBJECT_ID":"2024-232G","EPOCH":"2026-03-07T06:38:31.900704","MEAN_MOTION":14.24532043,"ECCENTRICITY":0.00154027,"INCLINATION":89.0059,"RA_OF_ASC_NODE":27.6988,"ARG_OF_PERICENTER":159.1549,"MEAN_ANOMALY":201.0275,"EPHEMERIS_TYPE":0,"CLASSIFICATION_TYPE":"U","NORAD_CAT_ID":62243,"ELEMENT_SET_NO":999,"REV_AT_EPOCH":11340,"BSTAR":0.0002238561,"MEAN_MOTION_DOT":5.34e-6,"MEAN_MOTION_DDOT":0},{"OBJECT_NAME":"QIANFAN-43","OBJECT_ID":"2024-232H","EPOCH":"2026-03-07T06:21:20.353824","MEAN_MOTION":13.51005113,"ECCENTRICITY":0.00142598,"INCLINATION":89.0065,"RA_OF_ASC_NODE":32.7329,"ARG_OF_PERICENTER":319.1585,"MEAN_ANOMALY":40.8497,"EPHEMERIS_TYPE":0,"CLASSIFICATION_TYPE":"U","NORAD_CAT_ID":62244,"ELEMENT_SET_NO":999,"REV_AT_EPOCH":7927,"BSTAR":0.0001503902,"MEAN_MOTION_DOT":1.09e-6,"MEAN_MOTION_DDOT":0},{"OBJECT_NAME":"QIANFAN-44","OBJECT_ID":"2024-232J","EPOCH":"2026-03-07T06:03:34.887168","MEAN_MOTION":13.51003031,"ECCENTRICITY":0.00123934,"INCLINATION":89.0063,"RA_OF_ASC_NODE":32.5435,"ARG_OF_PERICENTER":316.931,"MEAN_ANOMALY":43.0871,"EPHEMERIS_TYPE":0,"CLASSIFICATION_TYPE":"U","NORAD_CAT_ID":62245,"ELEMENT_SET_NO":999,"REV_AT_EPOCH":11074,"BSTAR":0.00014338918,"MEAN_MOTION_DOT":1.04e-6,"MEAN_MOTION_DDOT":0},{"OBJECT_NAME":"QIANFAN-45","OBJECT_ID":"2024-232K","EPOCH":"2026-03-07T07:02:52.566144","MEAN_MOTION":13.51001153,"ECCENTRICITY":0.00130344,"INCLINATION":89.0067,"RA_OF_ASC_NODE":32.6888,"ARG_OF_PERICENTER":316.0385,"MEAN_ANOMALY":43.9729,"EPHEMERIS_TYPE":0,"CLASSIFICATION_TYPE":"U","NORAD_CAT_ID":62246,"ELEMENT_SET_NO":999,"REV_AT_EPOCH":11067,"BSTAR":0.00029207129,"MEAN_MOTION_DOT":2.0e-6,"MEAN_MOTION_DDOT":0},{"OBJECT_NAME":"QIANFAN-46","OBJECT_ID":"2024-232L","EPOCH":"2026-03-07T07:38:21.595200","MEAN_MOTION":13.51003671,"ECCENTRICITY":0.00132651,"INCLINATION":89.0063,"RA_OF_ASC_NODE":32.7519,"ARG_OF_PERICENTER":321.9026,"MEAN_ANOMALY":38.1187,"EPHEMERIS_TYPE":0,"CLASSIFICATION_TYPE":"U","NORAD_CAT_ID":62247,"ELEMENT_SET_NO":999,"REV_AT_EPOCH":11063,"BSTAR":0.00014069583,"MEAN_MOTION_DOT":1.03e-6,"MEAN_MOTION_DDOT":0},{"OBJECT_NAME":"QIANFAN-47","OBJECT_ID":"2024-232M","EPOCH":"2026-03-07T07:44:16.859040","MEAN_MOTION":13.51003579,"ECCENTRICITY":0.0013652,"INCLINATION":89.0059,"RA_OF_ASC_NODE":32.6811,"ARG_OF_PERICENTER":320.7504,"MEAN_ANOMALY":39.2657,"EPHEMERIS_TYPE":0,"CLASSIFICATION_TYPE":"U","NORAD_CAT_ID":62248,"ELEMENT_SET_NO":999,"REV_AT_EPOCH":11066,"BSTAR":0.00014706162,"MEAN_MOTION_DOT":1.07e-6,"MEAN_MOTION_DDOT":0},{"OBJECT_NAME":"QIANFAN-48","OBJECT_ID":"2024-232N","EPOCH":"2026-03-07T06:50:57.979392","MEAN_MOTION":13.51003614,"ECCENTRICITY":0.00159818,"INCLINATION":89.0063,"RA_OF_ASC_NODE":32.69,"ARG_OF_PERICENTER":322.6735,"MEAN_ANOMALY":37.3305,"EPHEMERIS_TYPE":0,"CLASSIFICATION_TYPE":"U","NORAD_CAT_ID":62249,"ELEMENT_SET_NO":999,"REV_AT_EPOCH":11066,"BSTAR":0.00010478522,"MEAN_MOTION_DOT":8.0e-7,"MEAN_MOTION_DDOT":0},{"OBJECT_NAME":"QIANFAN-49","OBJECT_ID":"2024-232P","EPOCH":"2026-03-07T06:33:11.968416","MEAN_MOTION":13.51002887,"ECCENTRICITY":0.00129075,"INCLINATION":89.0062,"RA_OF_ASC_NODE":32.7031,"ARG_OF_PERICENTER":318.2273,"MEAN_ANOMALY":41.7892,"EPHEMERIS_TYPE":0,"CLASSIFICATION_TYPE":"U","NORAD_CAT_ID":62250,"ELEMENT_SET_NO":999,"REV_AT_EPOCH":7925,"BSTAR":0.00015622919,"MEAN_MOTION_DOT":1.13e-6,"MEAN_MOTION_DDOT":0},{"OBJECT_NAME":"QIANFAN-50","OBJECT_ID":"2024-232Q","EPOCH":"2026-03-07T07:08:43.795104","MEAN_MOTION":13.51003764,"ECCENTRICITY":0.0014599,"INCLINATION":89.0067,"RA_OF_ASC_NODE":32.7134,"ARG_OF_PERICENTER":318.8198,"MEAN_ANOMALY":41.185,"EPHEMERIS_TYPE":0,"CLASSIFICATION_TYPE":"U","NORAD_CAT_ID":62251,"ELEMENT_SET_NO":999,"REV_AT_EPOCH":7928,"BSTAR":0.00013960862,"MEAN_MOTION_DOT":1.02e-6,"MEAN_MOTION_DDOT":0},{"OBJECT_NAME":"QIANFAN-51","OBJECT_ID":"2024-232R","EPOCH":"2026-03-07T06:45:04.490208","MEAN_MOTION":13.51004488,"ECCENTRICITY":0.00122229,"INCLINATION":89.0061,"RA_OF_ASC_NODE":32.7037,"ARG_OF_PERICENTER":324.1885,"MEAN_ANOMALY":35.8446,"EPHEMERIS_TYPE":0,"CLASSIFICATION_TYPE":"U","NORAD_CAT_ID":62252,"ELEMENT_SET_NO":999,"REV_AT_EPOCH":7927,"BSTAR":9.976444e-5,"MEAN_MOTION_DOT":7.6e-7,"MEAN_MOTION_DDOT":0}]
