QIANFAN-35              
1 61568U 24185S   26066.27257947  .00001220  00000+0  48484-3 0  9994
2 61568  88.9747  66.9364 0007287  27.5037 332.6542 14.28123045 82244
QIANFAN-36              
1 61569U 24185T   26066.25641748  .00000114  00000+0  14691-3 0  9993
2 61569  88.9719  72.2232 0007123 142.2227 217.9428 13.55614071 79374
QIANFAN-37              
1 62238U 24232B   26066.27721627  .00000102  00000+0  13865-3 0  9996
2 62238  89.0056  32.7910 0001756  97.7138 262.4213 13.51005619110583
QIANFAN-38              
1 62239U 24232C   26066.30185301  .00000101  00000+0  13845-3 0  9991
2 62239  89.0062  32.7101 0013274 318.1212  41.8923 13.51004159110646
QIANFAN-39              
1 62240U 24232D   26066.29519297  .00000581  00000+0  23975-3 0  9993
2 62240  89.0061  27.6369 0016784 153.7461 206.4587 14.25438386113434
QIANFAN-40              
1 62241U 24232E   26066.26070623  .00000115  00000+0  16035-3 0  9998
2 62241  89.0091  32.3224 0012581 327.4496  32.5879 13.51003434111003
QIANFAN-41              
1 62242U 24232F   26066.26897584  .00000104  00000+0  14290-3 0  9991
2 62242  89.0061  32.6635 0012583 314.2355  45.7762 13.51005071110667
QIANFAN-42              
1 62243U 24232G   26066.27675811  .00000534  00000+0  22386-3 0  9992
2 62243  89.0059  27.6988 0015402 159.1549 201.0275 14.24532043113400
QIANFAN-43              
1 62244U 24232H   26066.26481891  .00000109  00000+0  15039-3 0  9990
2 62244  89.0065  32.7329 0014259 319.1585  40.8497 13.51005113 79274
QIANFAN-44              
1 62245U 24232J   26066.25248712  .00000104  00000+0  14339-3 0  9990
2 62245  89.0063  32.5435 0012393 316.9310  43.0871 13.51003031110743
QIANFAN-45              
1 62246U 24232K   26066.29366396  .00000200  00000+0  29207-3 0  9991
2 62246  89.0067  32.6888 0013034 316.0385  43.9729 13.51001153110673
QIANFAN-46              
1 62247U 24232L   26066.31830550  .00000103  00000+0  14070-3 0  9997
2 62247  89.0063  32.7519 0013265 321.9026  38.1187 13.51003671110632
QIANFAN-47              
1 62248U 24232M   26066.32241735  .00000107  00000+0  14706-3 0  9990
2 62248  89.0059  32.6811 0013652 320.7504  39.2657 13.51003579110664
QIANFAN-48              
1 62249U 24232N   26066.28539328  .00000080  00000+0  10479-3 0  9997
2 62249  89.0063  32.6900 0015981 322.6735  37.3305 13.51003614110662
QIANFAN-49              
1 62250U 24232P   26066.27305519  .00000113  00000+0  15623-3 0  9994
2 62250  89.0062  32.7031 0012907 318.2273  41.7892 13.51002887 79252
QIANFAN-50              
1 62251U 24232Q   26066.29772911  .00000102  00000+0  13961-3 0  9992
2 62251  89.0067  32.7134 0014599 318.8198  41.1850 13.51003764 79289
QIANFAN-51              
1 62252U 24232R   26066.28130197  .00000076  00000+0  99764-4 0  9992
2 62252  89.0061  32.7037 0012222 324.1885  35.8446 13.51004488 79274
